{"type": "FeatureCollection", "features": [ {"type": "Feature", "properties": {"norad_id": 38817, "name": "FENGYUN 1C DEB", "group": "fengyun-1c-debris", "lat": 57.18248929699039, "lon": 63.985343055319625, "alt_km": 1131.0024088098908, "timestamp": "2025-12-27T22:26:48.892795+00:00", "meta": {"OBJECT_NAME": "FENGYUN 1C DEB", "OBJECT_ID": "1999-025EVH", "EPOCH": "2025-12-23T20:35:47.170176", "MEAN_MOTION": 13.57734198, "ECCENTRICITY": 0.0291793, "INCLINATION": 98.6001, "RA_OF_ASC_NODE": 226.8391, "ARG_OF_PERICENTER": 15.5256, "MEAN_ANOMALY": 345.4607, "EPHEMERIS_TYPE": 0, "CLASSIFICATION_TYPE": "U", "NORAD_CAT_ID": 38817, "ELEMENT_SET_NO": 999, "REV_AT_EPOCH": 65985, "BSTAR": 0.0022277, "MEAN_MOTION_DOT": 2.078e-05, "MEAN_MOTION_DDOT": 0}, "tle": {"line1": "1 38817U 99025EVH 25357.85818484  .00002078  00000+0  22277-2 0  9998", "line2": "2 38817  98.6001 226.8391 0291793  15.5256 345.4607 13.57734198659859"}}, "geometry": {"type": "Point", "coordinates": [63.985343055319625, 57.18248929699039]}}, {"type": "Feature", "properties": {"norad_id": 38818, "name": "FENGYUN 1C DEB", "group": "fengyun-1c-debris", "lat": -8.174802215180485, "lon": -123.45376718793693, "alt_km": 807.676162269503, "timestamp": "2025-12-27T22:26:48.892805+00:00", "meta": {"OBJECT_NAME": "FENGYUN 1C DEB", "OBJECT_ID": "1999-025EVJ", "EPOCH": "2025-12-19T22:33:15.721056", "MEAN_MOTION": 14.39504218, "ECCENTRICITY": 0.0088399, "INCLINATION": 98.2985, "RA_OF_ASC_NODE": 50.005, "ARG_OF_PERICENTER": 78.086, "MEAN_ANOMALY": 98.6617, "EPHEMERIS_TYPE": 0, "CLASSIFICATION_TYPE": "U", "NORAD_CAT_ID": 38818, "ELEMENT_SET_NO": 999, "REV_AT_EPOCH": 67351, "BSTAR": 0.00027316, "MEAN_MOTION_DOT": 8.48e-06, "MEAN_MOTION_DDOT": 0}, "tle": {"line1": "1 38818U 99025EVJ 25353.93976529  .00000848  00000+0  27316-3 0  9992", "line2": "2 38818  98.2985  50.0050 0088399  78.0860  98.6617 14.39504218673513"}}, "geometry": {"type": "Point", "coordinates": [-123.45376718793693, -8.174802215180485]}}, {"type": "Feature", "properties": {"norad_id": 38819, "name": "FENGYUN 1C DEB", "group": "fengyun-1c-debris", "lat": 49.653158317865866, "lon": -175.37954701597, "alt_km": 768.9292775837703, "timestamp": "2025-12-27T22:26:48.892815+00:00", "meta": {"OBJECT_NAME": "FENGYUN 1C DEB", "OBJECT_ID": "1999-025EVK", "EPOCH": "2025-12-21T05:24:44.153856", "MEAN_MOTION": 14.19385553, "ECCENTRICITY": 0.0080075, "INCLINATION": 98.6179, "RA_OF_ASC_NODE": 347.8087, "ARG_OF_PERICENTER": 169.9002, "MEAN_ANOMALY": 253.6403, "EPHEMERIS_TYPE": 0, "CLASSIFICATION_TYPE": "U", "NORAD_CAT_ID": 38819, "ELEMENT_SET_NO": 999, "REV_AT_EPOCH": 63598, "BSTAR": 0.00031541, "MEAN_MOTION_DOT": 6.42e-06, "MEAN_MOTION_DDOT": 0}, "tle": {"line1": "1 38819U 99025EVK 25355.22551104  .00000642  00000+0  31541-3 0  9992", "line2": "2 38819  98.6179 347.8087 0080075 169.9002 253.6403 14.19385553635983"}}, "geometry": {"type": "Point", "coordinates": [-175.37954701597, 49.653158317865866]}}, {"type": "Feature", "properties": {"norad_id": 38827, "name": "FENGYUN 1C DEB", "group": "fengyun-1c-debris", "lat": 80.82868556013153, "lon": -41.61097518864242, "alt_km": 928.8959152955058, "timestamp": "2025-12-27T22:26:48.892825+00:00", "meta": {"OBJECT_NAME": "FENGYUN 1C DEB", "OBJECT_ID": "1999-025EVT", "EPOCH": "2025-12-22T07:57:58.637952", "MEAN_MOTION": 14.32909061, "ECCENTRICITY": 0.02157809, "INCLINATION": 98.3849, "RA_OF_ASC_NODE": 18.9611, "ARG_OF_PERICENTER": 284.2489, "MEAN_ANOMALY": 73.4818, "EPHEMERIS_TYPE": 0, "CLASSIFICATION_TYPE": "U", "NORAD_CAT_ID": 38827, "ELEMENT_SET_NO": 999, "REV_AT_EPOCH": 61197, "BSTAR": 0.00094975527, "MEAN_MOTION_DOT": 3.312e-05, "MEAN_MOTION_DDOT": 0}, "tle": {"line1": "1 38827U 99025EVT 25356.33192868  .00003312  00000+0  94976-3 0  9990", "line2": "2 38827  98.3849  18.9611 0215780 284.2489  73.4818 14.32909061611977"}}, "geometry": {"type": "Point", "coordinates": [-41.61097518864242, 80.82868556013153]}}, {"type": "Feature", "properties": {"norad_id": 38829, "name": "FENGYUN 1C DEB", "group": "fengyun-1c-debris", "lat": 6.129855919569561, "lon": -161.58512446679353, "alt_km": 893.1396665888378, "timestamp": "2025-12-27T22:26:48.892834+00:00", "meta": {"OBJECT_NAME": "FENGYUN 1C DEB", "OBJECT_ID": "1999-025EVV", "EPOCH": "2025-12-27T06:17:19.995072", "MEAN_MOTION": 14.09247078, "ECCENTRICITY": 0.0040443, "INCLINATION": 98.7482, "RA_OF_ASC_NODE": 16.8136, "ARG_OF_PERICENTER": 349.6991, "MEAN_ANOMALY": 10.3346, "EPHEMERIS_TYPE": 0, "CLASSIFICATION_TYPE": "U", "NORAD_CAT_ID": 38829, "ELEMENT_SET_NO": 999, "REV_AT_EPOCH": 64337, "BSTAR": 0.00069153, "MEAN_MOTION_DOT": 1.169e-05, "MEAN_MOTION_DDOT": 0}, "tle": {"line1": "1 38829U 99025EVV 25361.26203698  .00001169  00000+0  69153-3 0  9991", "line2": "2 38829  98.7482  16.8136 0040443 349.6991  10.3346 14.09247078643373"}}, "geometry": {"type": "Point", "coordinates": [-161.58512446679353, 6.129855919569561]}}, {"type": "Feature", "properties": {"norad_id": 38832, "name": "FENGYUN 1C DEB", "group": "fengyun-1c-debris", "lat": -5.609303283810683, "lon": 47.53034051111014, "alt_km": 821.3778046202287, "timestamp": "2025-12-27T22:26:48.892844+00:00", "meta": {"OBJECT_NAME": "FENGYUN 1C DEB", "OBJECT_ID": "1999-025EVY", "EPOCH": "2025-12-27T01:57:27.336960", "MEAN_MOTION": 14.04544382, "ECCENTRICITY": 0.00835078, "INCLINATION": 99.2656, "RA_OF_ASC_NODE": 45.7408, "ARG_OF_PERICENTER": 2.6784, "MEAN_ANOMALY": 357.4813, "EPHEMERIS_TYPE": 0, "CLASSIFICATION_TYPE": "U", "NORAD_CAT_ID": 38832, "ELEMENT_SET_NO": 999, "REV_AT_EPOCH": 63959, "BSTAR": 0.0010994188, "MEAN_MOTION_DOT": 1.764e-05, "MEAN_MOTION_DDOT": 0}, "tle": {"line1": "1 38832U 99025EVY 25361.08156640  .00001764  00000+0  10994-2 0  9998", "line2": "2 38832  99.2656  45.7408 0083507   2.6784 357.4813 14.04544382639599"}}, "geometry": {"type": "Point", "coordinates": [47.53034051111014, -5.609303283810683]}}, {"type": "Feature", "properties": {"norad_id": 39537, "name": "FENGYUN 1C DEB", "group": "fengyun-1c-debris", "lat": 12.199899060666343, "lon": -30.70281004009818, "alt_km": 1037.2368565062152, "timestamp": "2025-12-27T22:26:48.892854+00:00", "meta": {"OBJECT_NAME": "FENGYUN 1C DEB", "OBJECT_ID": "1999-025EWE", "EPOCH": "2025-12-19T15:51:43.070688", "MEAN_MOTION": 13.84193589, "ECCENTRICITY": 0.0177797, "INCLINATION": 99.1526, "RA_OF_ASC_NODE": 139.2359, "ARG_OF_PERICENTER": 322.4144, "MEAN_ANOMALY": 36.4691, "EPHEMERIS_TYPE": 0, "CLASSIFICATION_TYPE": "U", "NORAD_CAT_ID": 39537, "ELEMENT_SET_NO": 999, "REV_AT_EPOCH": 59352, "BSTAR": 0.0010435, "MEAN_MOTION_DOT": 1.271e-05, "MEAN_MOTION_DDOT": 0}, "tle": {"line1": "1 39537U 99025EWE 25353.66091517  .00001271  00000+0  10435-2 0  9990", "line2": "2 39537  99.1526 139.2359 0177797 322.4144  36.4691 13.84193589593525"}}, "geometry": {"type": "Point", "coordinates": [-30.70281004009818, 12.199899060666343]}}, {"type": "Feature", "properties": {"norad_id": 39541, "name": "FENGYUN 1C DEB", "group": "fengyun-1c-debris", "lat": 68.1477001774237, "lon": 21.371736663281975, "alt_km": 777.5582238626266, "timestamp": "2025-12-27T22:26:48.892864+00:00", "meta": {"OBJECT_NAME": "FENGYUN 1C DEB", "OBJECT_ID": "1999-025EWJ", "EPOCH": "2025-12-14T09:31:50.250432", "MEAN_MOTION": 14.20397112, "ECCENTRICITY": 0.00718166, "INCLINATION": 98.681, "RA_OF_ASC_NODE": 30.4764, "ARG_OF_PERICENTER": 68.7411, "MEAN_ANOMALY": 292.1416, "EPHEMERIS_TYPE": 0, "CLASSIFICATION_TYPE": "U", "NORAD_CAT_ID": 39541, "ELEMENT_SET_NO": 999, "REV_AT_EPOCH": 59026, "BSTAR": 0.00071004371, "MEAN_MOTION_DOT": 1.519e-05, "MEAN_MOTION_DDOT": 0}, "tle": {"line1": "1 39541U 99025EWJ 25348.39710938  .00001519  00000+0  71004-3 0  9999", "line2": "2 39541  98.6810  30.4764 0071816  68.7411 292.1416 14.20397112590267"}}, "geometry": {"type": "Point", "coordinates": [21.371736663281975, 68.1477001774237]}}, {"type": "Feature", "properties": {"norad_id": 39543, "name": "FENGYUN 1C DEB", "group": "fengyun-1c-debris", "lat": 14.1355899922626, "lon": 28.60214578674084, "alt_km": 981.8147989137406, "timestamp": "2025-12-27T22:26:48.892874+00:00", "meta": {"OBJECT_NAME": "FENGYUN 1C DEB", "OBJECT_ID": "1999-025EWL", "EPOCH": "2025-12-26T07:49:19.903584", "MEAN_MOTION": 13.70220761, "ECCENTRICITY": 0.0338915, "INCLINATION": 99.0405, "RA_OF_ASC_NODE": 29.3844, "ARG_OF_PERICENTER": 106.5175, "MEAN_ANOMALY": 257.3488, "EPHEMERIS_TYPE": 0, "CLASSIFICATION_TYPE": "U", "NORAD_CAT_ID": 39543, "ELEMENT_SET_NO": 999, "REV_AT_EPOCH": 49371, "BSTAR": 0.00083033, "MEAN_MOTION_DOT": 1.06e-05, "MEAN_MOTION_DDOT": 0}, "tle": {"line1": "1 39543U 99025EWL 25360.32592481  .00001060  00000+0  83033-3 0  9995", "line2": "2 39543  99.0405  29.3844 0338915 106.5175 257.3488 13.70220761493717"}}, "geometry": {"type": "Point", "coordinates": [28.60214578674084, 14.1355899922626]}}, {"type": "Feature", "properties": {"norad_id": 39544, "name": "FENGYUN 1C DEB", "group": "fengyun-1c-debris", "lat": -18.938541850631477, "lon": 57.510681506961426, "alt_km": 903.6617515057906, "timestamp": "2025-12-27T22:26:48.892884+00:00", "meta": {"OBJECT_NAME": "FENGYUN 1C DEB", "OBJECT_ID": "1999-025EWM", "EPOCH": "2025-12-18T10:16:20.672256", "MEAN_MOTION": 14.05533723, "ECCENTRICITY": 0.00544071, "INCLINATION": 98.7417, "RA_OF_ASC_NODE": 231.3683, "ARG_OF_PERICENTER": 353.4562, "MEAN_ANOMALY": 6.589, "EPHEMERIS_TYPE": 0, "CLASSIFICATION_TYPE": "U", "NORAD_CAT_ID": 39544, "ELEMENT_SET_NO": 999, "REV_AT_EPOCH": 56935, "BSTAR": 0.00032895311, "MEAN_MOTION_DOT": 4.99e-06, "MEAN_MOTION_DDOT": 0}, "tle": {"line1": "1 39544U 99025EWM 25352.42801704  .00000499  00000+0  32895-3 0  9994", "line2": "2 39544  98.7417 231.3683 0054407 353.4562   6.5890 14.05533723569356"}}, "geometry": {"type": "Point", "coordinates": [57.510681506961426, -18.938541850631477]}}]}